[Satellite]
VERSION=1.1
NAME=INSAT-3A
NICKNAME=INSAT-3A
TLE1=1 27714U 03013A   15054.57967718 -.00000283  00000-0  00000+0 0  9996
TLE2=2 27714   0.0374 248.7389 0001969 157.0860  49.4698  1.00272042 43522
